HELIOS 1B               
1 25977U 99064A   26079.47510757  .00001495  00000+0  17042-3 0  9993
2 25977  98.1684 342.0349 0002191  59.8252 300.3180 14.87738574686860
TERRA                   
1 25994U 99068A   26079.62353965  .00000364  00000+0  83230-4 0  9996
2 25994  97.9570 132.6394 0003299 128.1402  32.8016 14.61025606396679
SL-16 R/B               
1 26070U 00006B   26079.39822469 -.00000078  00000+0 -15178-4 0  9990
2 26070  71.0005  75.3185 0016194 173.4333 186.7005 14.15823563350074
TITAN 4B R/B            
1 26474U 00047B   26079.42995175  .00003232  00000+0  20511-3 0  9991
2 26474  67.9913  10.3074 0039213  22.6930 337.5942 15.09659676394536
ENVISAT                 
1 27386U 02009A   26079.61949955  .00000106  00000+0  48279-4 0  9999
2 27386  98.3747  32.9577 0001292  81.9943  90.8201 14.39040633260749
IDEFIX & ARIANE 42P R/B 
1 27422U 02021B   26079.40334965  .00000226  00000+0  10247-3 0  9996
2 27422  98.5882  17.8822 0012189 151.0115 209.1748 14.31033038245550
AQUA                    
1 27424U 02022A   26079.57613954  .00000868  00000+0  18302-3 0  9997
2 27424  98.4194  47.1409 0000795 113.3416 358.1077 14.62001186270325
CZ-4B R/B               
1 27432U 02024C   26079.63009840  .00000038  00000+0  42639-4 0  9998
2 27432  98.8814 132.9805 0049919 353.1890 160.4301 14.14549584230787
MIDORI II (ADEOS-II)    
1 27597U 02056A   26079.58440461  .00000274  00000+0  12565-3 0  9993
2 27597  98.7789  38.1386 0001140  29.1884 330.9361 14.29293047211850
H-2A R/B                
1 27601U 02056E   26079.39464619  .00000228  00000+0  94276-4 0  9998
2 27601  98.3222  39.3539 0071081 129.0519 343.3622 14.33767382215645
CZ-4B R/B               
1 28059U 03049C   26079.45511829  .00000292  00000+0  78628-4 0  9996
2 28059  98.6889  74.7831 0047772 197.5565 162.3982 14.55029562188163
CZ-2C R/B               
1 28222U 04012C   26079.15822986  .00041551  00000+0  41047-3 0  9992
2 28222  97.7200 145.4513 0012937 266.6030  93.3749 15.65689873205911
SL-16 R/B               
1 28353U 04021B   26079.41747086 -.00000184  00000+0 -70820-4 0  9994
2 28353  70.9998 209.9789 0004575 356.3058   3.8030 14.14593572124350
CZ-4B R/B               
1 28415U 04035C   26079.57550429  .00007436  00000+0  26128-3 0  9994
2 28415  97.3474 113.6877 0030110 291.0268  68.7752 15.29239279181578
CZ-2C R/B               
1 28480U 04046B   26079.49419154  .00000122  00000+0  59771-4 0  9994
2 28480  98.1980 353.8053 0140390 122.6605 238.8211 14.26995630110041
ARIANE 5 R/B            
1 28499U 04049H   26079.41150820  .00000621  00000+0  75281-4 0  9999
2 28499  98.2641 248.2710 0083232 316.9557  42.5166 14.85284101147383
CZ-2D R/B               
1 28738U 05024B   26079.28897950  .00029756  00000+0  35450-3 0  9999
2 28738  97.3582  94.8309 0003983  16.3856 343.7530 15.61045673141435
